NUSAT-1 (FRESCO)        
1 41557U 16033B   22334.75553524  .00018154  00000+0  45841-3 0  9998
2 41557  97.3903  73.2674 0010648 137.8565  14.3197 15.39822313362922
BEESAT-4                
1 41619U 16040W   22334.57988836  .00017228  00000+0  48163-3 0  9994
2 41619  97.1948  21.1125 0006567 232.6074 127.4573 15.36723199346188
CAS-2T & KS-1Q          
1 41847U 16066G   22334.14094538  .00000637  00000+0  10370-3 0  9990
2 41847  98.5319  38.4948 0363663  74.1428 289.9526 14.38926340318171
NAYIF-1 (EO-88)         
1 42017U 17008BX  22334.14477137  .00023127  00000+0  55374-3 0  9999
2 42017  97.2484  38.3250 0004343  28.8740 331.2747 15.41435197322536
ZHUHAI-1 02 (CAS-4B)    
1 42759U 17034B   22334.80588125  .00002747  00000+0  16376-3 0  9998
2 42759  43.0158 134.9119 0011360 264.4509 235.3003 15.13345666301548
ZHUHAI-1 01 (CAS-4A)    
1 42761U 17034D   22334.83469610  .00003059  00000+0  18047-3 0  9995
2 42761  43.0162 133.4183 0011555 268.2948 245.6823 15.13436874301553
MAX VALIER SAT          
1 42778U 17036P   22334.36424900  .00009236  00000+0  31816-3 0  9998
2 42778  97.1860   9.8856 0011894  94.6829 265.5771 15.30170116302247
RADFXSAT (FOX-1B)       
1 43017U 17073E   22334.66996865  .00004805  00000+0  35569-3 0  9999
2 43017  97.6532 221.9923 0244510   3.3135 356.9628 14.82726684271735
FOX-1D (AO-92)          
1 43137U 18004AC  22334.63038407  .00011983  00000+0  37472-3 0  9993
2 43137  97.3536  48.5279 0008269 126.0849 234.1160 15.33261401271769
DIWATA-2B               
1 43678U 18084H   22334.80360428  .00000826  00000+0  86153-4 0  9996
2 43678  97.9935 110.2975 0011079  96.2818 263.9675 14.92511441222667
ES'HAIL 2               
1 43700U 18090A   22334.74172486  .00000145  00000+0  00000+0 0  9993
2 43700   0.0151 296.8493 0001166 335.2333  90.3383  1.00271755 14942
FOX-1CLIFF (AO-95)      
1 43770U 18099N   22334.64487349  .00002450  00000+0  21545-3 0  9997
2 43770  97.6013  36.5903 0015059  80.4470 279.8453 14.97347528217871
ITASAT 1                
1 43786U 18099AE  22334.62780104  .00001526  00000+0  13599-3 0  9990
2 43786  97.6047  37.5739 0015744  72.0986 288.1952 14.97374110217912
JY1SAT (JO-97)          
1 43803U 18099AX  22334.64768602  .00002722  00000+0  23441-3 0  9997
2 43803  97.6000  37.4135 0015365  72.5999 287.6902 14.98075822217949
UWE-4                   
1 43880U 18111E   22334.19084471  .00002678  00000+0  22427-3 0  9995
2 43880  97.6560 237.5879 0011485 121.4699 238.7649 14.99231863214529
NEXUS (FO-99)           
1 43937U 19003F   22334.06216960  .00015910  00000+0  46142-3 0  9998
2 43937  97.1143   1.2836 0016230 281.7456  78.1967 15.35476185215346
PSAT2 (NO-104)          
1 44354U 19036R   22334.59882789  .00112550 -30198-5  56427-3 0  9997
2 44354  28.5192  88.1142 0147637  74.3012 287.3827 15.65933505190489
JAISAT-1                
1 44419U 19038F   22334.41391983  .00009458  00000+0  43434-3 0  9991
2 44419  97.6566 306.3851 0015667 280.0143  79.9324 15.20515109188248
DUCHIFAT-3              
1 44854U 19089C   22334.82615763  .00003491  00000+0  26418-3 0  9994
2 44854  36.9650 193.1595 0005849 138.1423 322.3097 15.02436141162953
CAS-6 (TIANQIN 1)       
1 44881U 19093C   22334.82677089  .00000540  00000+0  74704-4 0  9992
2 44881  97.8811  51.5569 0015235  10.0454 350.1058 14.81948195159414
RS-44 & BREEZE-KM R/B   
1 44909U 19096E   22334.40571929  .00000039  00000+0  11767-3 0  9998
2 44909  82.5189 120.0368 0216455 291.7945  66.0251 12.79716787136736
ORBITAL FACTORY 2 (OF-2)
1 45113U 19071C   22334.36288807  .00049792  00000+0  65869-3 0  9995
2 45113  51.6353 317.0734 0011665  64.4598 295.7599 15.57742120159116
HUSKYSAT-1 (HO-107)     
1 45119U 19071J   22334.34603221  .00039013  00000+0  57503-3 0  9991
2 45119  51.6350 319.1750 0011342  60.3091 299.9028 15.54936223159079
BY70-2                  
1 45857U 20042B   22334.85202710  .00006923  00000+0  87254-3 0  9994
2 45857  97.9448  50.2562 0008838 295.9535  64.0792 14.82268171130087
SALSAT                  
1 46495U 20068K   22334.26131403  .00003091  00000+0  21941-3 0  9990
2 46495  97.7473 275.8277 0017749  76.3326 283.9875 15.05371278119125
BY70-3                  
1 46839U 20079N   22334.79623741  .00039896  00000+0  65872-3 0  9996
2 46839  97.1803  45.4910 0005231  92.2525  48.7798 15.52143411115949
RADFXSAT-2 (AO-109)     
1 47311U 21002C   22334.36390193  .00010226  00000+0  36679-3 0  9993
2 47311  60.6837  96.3695 0038239  76.5005 284.0341 15.28604343103792
UVSQ-SAT                
1 47438U 21006AB  22334.14729012  .00005971  00000+0  29705-3 0  9992
2 47438  97.4162  29.7766 0012674  63.4765 296.7767 15.17920006102395
DIY-1 (ARDUIQUBE)       
1 47963U 21022AH  22334.66015137  .00022468  00000+0  10345-2 0  9995
2 47963  97.5166 234.5871 0012002 286.5271  73.4645 15.20253640 92133
XW-3 (CAS-9)            
1 50466U 21131B   22334.75722662  .00000159  00000+0  66398-4 0  9990
2 50466  98.5695  51.8350 0004616  27.6246 332.5186 14.38583698 48826
TEVEL-3                 
1 50988U 22002E   22334.76242484  .00008092  00000+0  41191-3 0  9994
2 50988  97.4625  39.0488 0008736 198.9358 309.6873 15.17041769 48609
TEVEL-8                 
1 50989U 22002F   22334.77232391  .00008243  00000+0  42016-3 0  9997
2 50989  97.4640  39.0957 0008523 198.4751 304.3531 15.16987251 48601
TEVEL-5                 
1 50998U 22002Q   22334.79237781  .00008586  00000+0  42987-3 0  9994
2 50998  97.4623  39.2793 0010320 194.7134 304.8249 15.17589709 48624
TEVEL-6                 
1 50999U 22002R   22334.79150098  .00008536  00000+0  42732-3 0  9993
2 50999  97.4616  39.2750 0010230 194.5202 305.1003 15.17595498 48628
TEVEL-1                 
1 51013U 22002AF  22334.63708105  .00008190  00000+0  41721-3 0  9995
2 51013  97.4626  38.8938 0008620 198.8916 317.5733 15.17010957 48583
TEVEL-7                 
1 51062U 22002CG  22334.82620197  .00008315  00000+0  42382-3 0  9997
2 51062  97.4642  39.1306 0008666 197.2984 228.4097 15.16986843 48618
TEVEL-4                 
1 51063U 22002CH  22334.82767394  .00008314  00000+0  42397-3 0  9994
2 51063  97.4639  39.1250 0008729 197.4097 227.1457 15.16969880 48618
TEVEL-2                 
1 51069U 22002CP  22334.63410836  .00008175  00000+0  41618-3 0  9995
2 51069  97.4623  38.9035 0008523 199.6444 319.1583 15.17035470 48585
GREENCUBE               
1 53106U 22080B   22333.51808465 -.00000003  00000+0  00000+0 0  9999
2 53106  70.1765  29.0920 0008978 229.5364 130.4514  6.42557523  8924
YUZGU 9 (RS3S)          
1 53308U 98067TT  22334.72177143  .00101370  00000+0  88702-3 0  9994
2 53308  51.6351 224.8642 0008505 148.2097 211.9414 15.68054380 20643
YUZGU 7 (RS1S)          
1 53309U 98067TU  22334.70194185  .00108681  00000+0  92555-3 0  9991
2 53309  51.6345 224.7251 0008907 151.7673 208.3808 15.68681520 20590
YUZGU 11 (RS5S)         
1 53310U 98067TV  22334.72059326  .00102162  00000+0  89417-3 0  9993
2 53310  51.6350 224.8555 0008667 150.2688 209.8803 15.68043128 20620
YUZGU 12 (RS6S)         
1 53311U 98067TW  22334.74492076  .00115581  00000+0  95586-3 0  9992
2 53311  51.6345 224.2611 0008547 147.9865 212.1653 15.69369882 20651
TSIOLKOVSKY-RYAZAN 1 (*)
1 53312U 98067TX  22334.70410609  .00109699  00000+0  94684-3 0  9992
2 53312  51.6355 224.7464 0008959 152.0442 208.1038 15.68349337 20585
TSIOLKOVSKY-RYAZAN 2 (*)
1 53313U 98067TY  22334.69990851  .00107518  00000+0  92120-3 0  9994
2 53313  51.6355 224.7194 0008538 153.2699 206.8739 15.68543036 20637
YUZGU 10 (RS4S)         
1 53321U 98067TZ  22334.71300254  .00106223  00000+0  91635-3 0  9990
2 53321  51.6351 224.8051 0008696 149.7582 210.3918 15.68379795 20639
RS29S (SXC3-2110 CYCLO*)
1 53373U 22096D   22334.78858330  .00011785  00000+0  44486-3 0  9996
2 53373  97.4278 235.5220 0002996 100.3133 331.2962 15.27173938 17309
RS32S (SXC3-212 MONITO*)
1 53374U 22096E   22334.78127837  .00010643  00000+0  40133-3 0  9995
2 53374  97.4273 235.5283 0003151  94.1822 339.9646 15.27235474 17301
RS34S (SXC3-218 KUZBAS*)
1 53375U 22096F   22334.79239956  .00009717  00000+0  37100-3 0  9993
2 53375  97.4280 235.5147 0003157  97.8639 334.0854 15.26846760 17303
RS23S (SXC3-21 UTMN)    
1 53376U 22096G   22334.78960931  .00010036  00000+0  38224-3 0  9991
2 53376  97.4278 235.5204 0003254  97.5149 335.3194 15.26917677 17303
RS28S (SXC3-214 MIET-A*)
1 53377U 22096H   22334.78876877  .00009387  00000+0  35834-3 0  9998
2 53377  97.4285 235.5232 0003315  94.4961 337.7757 15.26860415 17307
RS26S (KAI-1)           
1 53378U 22096J   22334.79327863  .00008449  00000+0  32473-3 0  9990
2 53378  97.4280 235.5136 0003345  90.0359 341.2054 15.26669430 17306
RS19S (SXC3-219 ISOI)   
1 53381U 22096M   22334.81473620  .00009753  00000+0  36631-3 0  9999
2 53381  97.4273 235.6255 0006038  58.6795 346.2850 15.27377279 17319
RS21S (CUBESX-HSE-2)    
1 53383U 22096P   22334.75183868  .00009751  00000+0  36578-3 0  9994
2 53383  97.4279 235.5736 0006208  57.8692  18.1094 15.27418718 17304
RS30S (SXC3-217 SIREN)  
1 53384U 22096Q   22334.75527178  .00009024  00000+0  34030-3 0  9995
2 53384  97.4278 235.5684 0006257  57.3876  22.2153 15.27265891 17303
RS20S (GEOSCAN-EDELVEIS)
1 53385U 22096R   22334.78682627  .00012179  00000+0  44617-3 0  9997
2 53385  97.4272 235.6725 0006688  56.1861  15.6042 15.28138683 17340
RS33S (SXC3-215 VIZARD) 
1 53386U 22096S   22334.81920465  .00014602  00000+0  52158-3 0  9999
2 53386  97.4271 235.7822 0007613  55.2899  18.7617 15.28919395 17348
CUTE-1 (CO-55)          
1 27844U 03031E   22334.49632234  .00000221  00000+0  11859-3 0  9990
2 27844  98.6798 339.6948 0009554 347.5807  12.5134 14.22548301  7488
CUBESAT XI-IV (CO-57)   
1 27848U 03031J   22333.94879408  .00000180  00000+0  10117-3 0  9999
2 27848  98.6838 339.6368 0009748   4.0287 356.0968 14.22091635  7186
